NORAD_CAT_ID,OBJECT_NAME,OBJECT_TYPE,EPOCH,MEAN_MOTION,ECCENTRICITY,INCLINATION,RA_OF_ASC_NODE,ARG_OF_PERICENTER,MEAN_ANOMALY,BSTAR,MEAN_MOTION_DOT,MEAN_MOTION_DDOT,TLE_LINE0,TLE_LINE1,TLE_LINE2,SEMIMAJOR_AXIS,PERIOD,APOGEE,PERIGEE,DECAYED
52269.0,STARLINK-3791,PAYLOAD,2023-01-06 10:04:14,15.08848492,0.0001796,53.2134,268.8069,37.4235,322.6881,9.5642e-05,1.235e-05,0.0,0 STARLINK-3791,1 52269U 22041J   23006.41960734  .00001235  00000-0  95642-4 0  9999,2 52269  53.2134 268.8069 0001796  37.4235 322.6881 15.08848492 40722,6917.854,95.437,540.962,538.477,0.0
52269.0,STARLINK-3791,PAYLOAD,2023-01-06 18:01:09,15.08849862,0.0001794,53.2122,267.3205,40.8026,319.31,7.1842e-06,-1.74e-06,0.0,0 STARLINK-3791,1 52269U 22041J   23006.75080653 -.00000174  00000-0  71842-5 0  9998,2 52269  53.2122 267.3205 0001794  40.8026 319.3100 15.08849862 39557,6917.85,95.437,540.956,538.474,0.0
52269.0,STARLINK-3791,PAYLOAD,2023-01-07 03:33:28,15.08845912,0.0001914,53.213,265.5358,45.49100000000001,314.6238,0.00012946,1.773e-05,0.0,0 STARLINK-3791,1 52269U 22041J   23007.14824704  .00001773  00000-0  12946-3 0  9998,2 52269  53.2130 265.5358 0001914  45.4910 314.6238 15.08845912 39611,6917.861999999999,95.437,541.0509999999998,538.403,0.0
52269.0,STARLINK-3791,PAYLOAD,2023-01-07 09:55:01,15.08830706,0.0001791,53.2115,264.3475,42.7996,317.3135,-0.00011514,-2.12e-05,0.0,0 STARLINK-3791,1 52269U 22041J   23007.41321234 -.00002120  00000-0 -11514-3 0  9997,2 52269  53.2115 264.3475 0001791  42.7996 317.3135 15.08830706 40879,6917.9090000000015,95.438,541.013,538.535,0.0
52269.0,STARLINK-3791,PAYLOAD,2023-01-08 01:48:54,15.08811027,0.0002323,53.213,261.3727,51.8623,308.2579,-0.00028605,-4.834e-05,0.0,0 STARLINK-3791,1 52269U 22041J   23008.07563209 -.00004834  00000-0 -28605-3 0  9993,2 52269  53.2130 261.3727 0002323  51.8623 308.2579 15.08811027 40970,6917.969,95.439,541.441,538.227,0.0
52269.0,STARLINK-3791,PAYLOAD,2023-01-08 17:42:46,15.08827934,0.0002028,53.2122,258.399,46.0597,314.0562,2.2033e-05,6.2e-07,0.0,0 STARLINK-3791,1 52269U 22041J   23008.73803315  .00000062  00000-0  22033-4 0  9998,2 52269  53.2122 258.3990 0002028  46.0597 314.0562 15.08827934 41070,6917.917,95.438,541.185,538.379,0.0
52269.0,STARLINK-3791,PAYLOAD,2023-01-09 01:39:41,15.08838892,0.0002047,53.2131,256.9118,47.6945,312.4221,0.00012371,1.681e-05,0.0,0 STARLINK-3791,1 52269U 22041J   23009.06922868  .00001681  00000-0  12371-3 0  9991,2 52269  53.2131 256.9118 0002047  47.6945 312.4221 15.08838892 41126,6917.884,95.438,541.165,538.3330000000002,0.0
52269.0,STARLINK-3791,PAYLOAD,2023-01-09 22:19:42,15.08844825,0.0002008,53.2127,253.0457,50.0001,310.1167,0.00047726,7.317e-05,0.0,0 STARLINK-3791,1 52269U 22041J   23009.93035214  .00007317  00000-0  47726-3 0  9991,2 52269  53.2127 253.0457 0002008  50.0001 310.1167 15.08844825 40039,6917.866,95.437,541.12,538.342,0.0
52269.0,STARLINK-3791,PAYLOAD,2023-01-10 09:27:24,15.08846402,0.0001695,53.2116,250.9637,49.4307,310.6832,0.00029238,4.369e-05,0.0,0 STARLINK-3791,1 52269U 22041J   23010.39403145  .00004369  00000-0  29238-3 0  9997,2 52269  53.2116 250.9637 0001695  49.4307 310.6832 15.08846402 41325,6917.861,95.437,540.898,538.553,0.0
52269.0,STARLINK-3791,PAYLOAD,2023-01-11 15:39:43,15.08846867,0.00018,53.2095,245.3122,59.8846,300.2325,0.00020587,2.99e-05,0.0,0 STARLINK-3791,1 52269U 22041J   23011.65258831  .00002990  00000-0  20587-3 0  9993,2 52269  53.2095 245.3122 0001800  59.8846 300.2325 15.08846867 41517,6917.859,95.437,540.97,538.479,0.0
52269.0,STARLINK-3791,PAYLOAD,2023-01-11 22:01:16,15.08832255,0.0001831,53.2115,244.1236,57.1004,303.0164,-0.00012725,-2.312e-05,0.0,0 STARLINK-3791,1 52269U 22041J   23011.91755048 -.00002312  00000-0 -12725-3 0  9999,2 52269  53.2115 244.1236 0001831  57.1004 303.0164 15.08832255 40331,6917.904,95.438,541.036,538.502,0.0
52269.0,STARLINK-3791,PAYLOAD,2023-01-12 21:52:04,15.08830439,0.0001956,53.2115,239.6629,65.3592,294.7603,0.00036819,5.575e-05,0.0,0 STARLINK-3791,1 52269U 22041J   23012.91116105  .00005575  00000-0  36819-3 0  9997,2 52269  53.2115 239.6629 0001956  65.3592 294.7603 15.08830439 40489,6917.91,95.438,541.128,538.4209999999998,0.0
52269.0,STARLINK-3791,PAYLOAD,2023-01-12 23:27:27,15.08832058,0.0001986,53.2123,239.366,66.7947,293.3254,0.00039364,5.981e-05,0.0,0 STARLINK-3791,1 52269U 22041J   23012.97740127  .00005981  00000-0  39364-3 0  9999,2 52269  53.2123 239.3660 0001986  66.7947 293.3254 15.08832058 41715,6917.905,95.438,541.144,538.396,0.0
52269.0,STARLINK-3791,PAYLOAD,2023-01-13 07:24:23,15.08831609,0.0001971,53.2118,237.8782,65.3684,294.7513,0.00042094,6.416e-05,0.0,0 STARLINK-3791,1 52269U 22041J   23013.30860432  .00006416  00000-0  42094-3 0  9997,2 52269  53.2118 237.8782 0001971  65.3684 294.7513 15.08831609 40548,6917.906,95.438,541.135,538.408,0.0
52269.0,STARLINK-3791,PAYLOAD,2023-01-13 21:42:51,15.08841539,0.0001927,53.2108,235.2021,69.4949,290.625,0.00036569,5.537e-05,0.0,0 STARLINK-3791,1 52269U 22041J   23013.90476304  .00005537  00000-0  36569-3 0  9997,2 52269  53.2108 235.2021 0001927  69.4949 290.6250 15.08841539 40631,6917.876,95.437,541.0740000000001,538.408,0.0
52269.0,STARLINK-3791,PAYLOAD,2023-01-14 00:53:37,15.08846182,0.0001964,53.2112,234.6074,70.6214,289.499,0.0004397999999999,6.719e-05,0.0,0 STARLINK-3791,1 52269U 22041J   23014.03724224  .00006719  00000-0  43980-3 0  9997,2 52269  53.2112 234.6074 0001964  70.6214 289.4990 15.08846182 41870,6917.861,95.437,541.085,538.368,0.0
52269.0,STARLINK-3791,PAYLOAD,2023-01-14 13:36:42,15.0883448,0.0002177,53.2113,232.2282,71.8547,288.2682,3.1101e-05,2.07e-06,0.0,0 STARLINK-3791,1 52269U 22041J   23014.56716410  .00000207  00000-0  31101-4 0  9992,2 52269  53.2113 232.2282 0002177  71.8547 288.2682 15.08834480 41957,6917.897,95.438,541.268,538.256,0.0
52269.0,STARLINK-3791,PAYLOAD,2023-01-15 13:27:30,15.0883642,0.0001868,53.2095,227.767,77.392,282.7281,8.658e-05,1.09e-05,0.0,0 STARLINK-3791,1 52269U 22041J   23015.56076821  .00001090  00000-0  86580-4 0  9990,2 52269  53.2095 227.7670 0001868  77.3920 282.7281 15.08836420 40889,6917.891,95.438,541.049,538.464,0.0
52269.0,STARLINK-3791,PAYLOAD,2023-01-15 19:49:02,15.08841137,0.0001739,53.2126,226.5781,77.5437,282.575,8.4041e-05,1.05e-05,0.0,0 STARLINK-3791,1 52269U 22041J   23015.82572613  .00001050  00000-0  84041-4 0  9995,2 52269  53.2126 226.5781 0001739  77.5437 282.5750 15.08841137 42147,6917.877,95.437,540.945,538.539,0.0
52269.0,STARLINK-3791,PAYLOAD,2023-01-15 21:24:25,15.08844498,0.0001749,53.2119,226.2804,80.402,279.717,0.00013534,1.867e-05,0.0,0 STARLINK-3791,1 52269U 22041J   23015.89196459  .00001867  00000-0  13534-3 0  9996,2 52269  53.2119 226.2804 0001749  80.4020 279.7170 15.08844498 40936,6917.866999999999,95.437,540.942,538.5219999999999,0.0
52269.0,STARLINK-3791,PAYLOAD,2023-01-16 13:18:17,15.08836316,0.0001827,53.2125,223.3075,85.2399,274.8801,9.8361e-05,1.277e-05,0.0,0 STARLINK-3791,1 52269U 22041J   23016.55436970  .00001277  00000-0  98361-4 0  9992,2 52269  53.2125 223.3075 0001827  85.2399 274.8801 15.08836316 41039,6917.892,95.438,541.021,538.493,0.0
52269.0,STARLINK-3791,PAYLOAD,2023-01-16 19:39:50,15.08837488,0.0001751999999999,53.2128,222.1181,82.2262,277.8928,7.418399999999999e-05,8.93e-06,0.0,0 STARLINK-3791,1 52269U 22041J   23016.81932983  .00000893  00000-0  74184-4 0  9996,2 52269  53.2128 222.1181 0001752  82.2262 277.8928 15.08837488 42293,6917.888000000001,95.438,540.965,538.5409999999999,0.0
52269.0,STARLINK-3791,PAYLOAD,2023-01-17 13:09:04,15.08837657,0.0001735,53.2121,218.8464,85.2774,274.8416,0.00011747,1.582e-05,0.0,0 STARLINK-3791,1 52269U 22041J   23017.54797222  .00001582  00000-0  11747-3 0  9993,2 52269  53.2121 218.8464 0001735  85.2774 274.8416 15.08837657 41188,6917.888000000001,95.438,540.953,538.552,0.0
52269.0,STARLINK-3791,PAYLOAD,2023-01-17 19:30:37,15.0884313,0.0001541,53.2116,217.6567,81.3532,278.7635,0.00011415,1.529e-05,0.0,0 STARLINK-3791,1 52269U 22041J   23017.81292927  .00001529  00000-0  11415-3 0  9998,2 52269  53.2116 217.6567 0001541  81.3532 278.7635 15.08843130 41221,6917.871,95.437,540.802,538.67,0.0
52269.0,STARLINK-3791,PAYLOAD,2023-01-18 06:38:19,15.0884298,0.0001608,53.2107,215.575,83.9467,276.1708,0.00015077,2.112e-05,0.0,0 STARLINK-3791,1 52269U 22041J   23018.27661012  .00002112  00000-0  15077-3 0  9991,2 52269  53.2107 215.5750 0001608  83.9467 276.1708 15.08842980 42519,6917.871,95.437,540.849,538.624,0.0
52269.0,STARLINK-3791,PAYLOAD,2023-01-18 12:59:51,15.08843896,0.0001786999999999,53.2104,214.3853,84.8175,275.3021,0.000166,2.355e-05,0.0,0 STARLINK-3791,1 52269U 22041J   23018.54157011  .00002355  00000-0  16600-3 0  9992,2 52269  53.2104 214.3853 0001787  84.8175 275.3021 15.08843896 41336,6917.868,95.437,540.97,538.497,0.0
52269.0,STARLINK-3791,PAYLOAD,2023-01-18 20:56:47,15.08849669,0.0001612,53.2119,212.8976,85.5032,274.6144,0.00022809,3.345e-05,0.0,0 STARLINK-3791,1 52269U 22041J   23018.87276624  .00003345  00000-0  22809-3 0  9998,2 52269  53.2119 212.8976 0001612  85.5032 274.6144 15.08849669 41385,6917.851,95.437,540.831,538.601,0.0
52269.0,STARLINK-3791,PAYLOAD,2023-01-19 12:50:38,15.08843668,0.0001778,53.2101,209.9235,92.3997,267.7198,0.00014033,1.946e-05,0.0,0 STARLINK-3791,1 52269U 22041J   23019.53516891  .00001946  00000-0  14033-3 0  9990,2 52269  53.2101 209.9235 0001778  92.3997 267.7198 15.08843668 41486,6917.869000000001,95.437,540.964,538.504,0.0
52269.0,STARLINK-3791,PAYLOAD,2023-01-19 19:12:11,15.08843179,0.0001835,53.21,208.7339,91.7603,268.36,0.00011989,1.621e-05,0.0,0 STARLINK-3791,1 52269U 22041J   23019.80012912  .00001621  00000-0  11989-3 0  9992,2 52269  53.2100 208.7339 0001835  91.7603 268.3600 15.08843179 42740,6917.871,95.437,541.005,538.466,0.0
